# Additional moons of the giant planets.

# Additional moons of Jupiter

"2000J11" "Sol/Jupiter"
{
	Texture	 	"asteroid.jpg"
	Mesh		"asteroid.cms"
	Radius		2.0

	EllipticalOrbit
	{
	Period		286.95
	SemiMajorAxis	12555000
	Eccentricity	0.2484
	Inclination	25.851	#
	AscendingNode	312.669	#
	ArgOfPericenter	172.672	# J2000.0
	MeanAnomaly     329.329	#
	}

	RotationPeriod  10   # Guess

	Albedo 0.04
}

"Autonoe" "Sol/Jupiter"
{
	Texture	 	"asteroid.jpg"
	Mesh		"asteroid.cms"
	Radius		2.0

	EllipticalOrbit
	{
	Period		765.95
	SemiMajorAxis	24046000
	Eccentricity	0.3168
	Inclination	149.551	#
	AscendingNode	290.639	#
	ArgOfPericenter	65.418	# J2000.0
	MeanAnomaly     134.044	#
	}

	RotationPeriod  10   # Guess

	Albedo 0.04
}

"Thyone" "Sol/Jupiter"
{
	Texture	 	"asteroid.jpg"
	Mesh		"asteroid.cms"
	Radius		2.0

	EllipticalOrbit
	{
	Period		627.21
	SemiMajorAxis	20939000
	Eccentricity	0.2286
	Inclination	150.100	#
	AscendingNode	266.835	#
	ArgOfPericenter	109.494	# J2000.0
	MeanAnomaly     242.603	#
	}

	RotationPeriod  10   # Guess

	Albedo 0.04
}

"Hermippe" "Sol/Jupiter"
{
	Texture	 	"asteroid.jpg"
	Mesh		"asteroid.cms"
	Radius		2.0

	EllipticalOrbit
	{
	Period		633.90
	SemiMajorAxis	21131000
	Eccentricity	0.2096
	Inclination	147.712	#
	AscendingNode	353.025	#
	ArgOfPericenter	277.841	# J2000.0
	MeanAnomaly     158.433	#
	}

	RotationPeriod  10   # Guess

	Albedo 0.04
}

"Eurydome" "Sol/Jupiter"
{
	Texture	 	"asteroid.jpg"
	Mesh		"asteroid.cms"
	Radius		1.5

	EllipticalOrbit
	{
	Period		717.33
	SemiMajorAxis	22865000
	Eccentricity	0.2759
	Inclination	144.350	#
	AscendingNode	321.938	#
	ArgOfPericenter	225.861	# J2000.0
	MeanAnomaly     281.794	#
	}

	RotationPeriod  10   # Guess

	Albedo 0.04
}

"Sponde" "Sol/Jupiter"
{
	Texture	 	"asteroid.jpg"
	Mesh		"asteroid.cms"
	Radius		1.0

	EllipticalOrbit
	{
	Period		748.34
	SemiMajorAxis	23487000
	Eccentricity	0.3121
	Inclination	153.405	#
	AscendingNode	128.207	#
	ArgOfPericenter	52.911	# J2000.0
	MeanAnomaly     177.408	#
	}

	RotationPeriod  10   # Guess

	Albedo 0.04
}

"Pasithee" "Sol/Jupiter"
{
	Texture	 	"asteroid.jpg"
	Mesh		"asteroid.cms"
	Radius		1.0

	EllipticalOrbit
	{
	Period		719.44
	SemiMajorAxis	23004000
	Eccentricity	0.2675
	Inclination	161.049	#
	AscendingNode	341.650	#
	ArgOfPericenter	210.162	# J2000.0
	MeanAnomaly     237.866	#
	}

	RotationPeriod  10   # Guess

	Albedo 0.04
}

"Euanthe" "Sol/Jupiter"
{
	Texture	 	"asteroid.jpg"
	Mesh		"asteroid.cms"
	Radius		1.5

	EllipticalOrbit
	{
	Period		620.49
	SemiMajorAxis	20797000
	Eccentricity	0.2321
	Inclination	145.251	#
	AscendingNode	290.469	#
	ArgOfPericenter	316.075	# J2000.0
	MeanAnomaly     353.616	#
	}

	RotationPeriod  10   # Guess

	Albedo 0.04
}

"Kale" "Sol/Jupiter"
{
	Texture	 	"asteroid.jpg"
	Mesh		"asteroid.cms"
	Radius		1.0

	EllipticalOrbit
	{
	Period		729.47
	SemiMajorAxis	23217000
	Eccentricity	0.2599
	Inclination	166.119	#
	AscendingNode	69.924	#
	ArgOfPericenter	60.165	# J2000.0
	MeanAnomaly     175.650	#
	}

	RotationPeriod  10   # Guess

	Albedo 0.04
}

"Orthosie" "Sol/Jupiter"
{
	Texture	 	"asteroid.jpg"
	Mesh		"asteroid.cms"
	Radius		1.0

	EllipticalOrbit
	{
	Period		622.56
	SemiMajorAxis	20720000
	Eccentricity	0.2808
	Inclination	145.538	#
	AscendingNode	237.202	#
	ArgOfPericenter	247.923	# J2000.0
	MeanAnomaly     161.134	#
	}

	RotationPeriod  10   # Guess

	Albedo 0.04
}

"Euporie" "Sol/Jupiter"
{
	Texture	 	"asteroid.jpg"
	Mesh		"asteroid.cms"
	Radius		1.0

	EllipticalOrbit
	{
	Period		550.74
	SemiMajorAxis	19304000
	Eccentricity	0.1432
	Inclination	146.861	#
	AscendingNode	82.199	#
	ArgOfPericenter	105.607	# J2000.0
	MeanAnomaly     56.246	#
	}

	RotationPeriod  10   # Guess

	Albedo 0.04
}

"Aitne" "Sol/Jupiter"
{
	Texture	 	"asteroid.jpg"
	Mesh		"asteroid.cms"
	Radius		1.5

	EllipticalOrbit
	{
	Period		730.18
	SemiMajorAxis	23229000
	Eccentricity	0.2643
	Inclination	163.705	#
	AscendingNode	17.939	#
	ArgOfPericenter	69.387	# J2000.0
	MeanAnomaly     120.574	#
	}

	RotationPeriod  10   # Guess

	Albedo 0.04
}

"2002J1" "Sol/Jupiter"
{
	Texture	 	"asteroid.jpg"
	Mesh		"asteroid.cms"
	Radius		1.5

	EllipticalOrbit
	{
	Period		723.90
	SemiMajorAxis	22931000
	Eccentricity	0.2588
	Inclination	160.380	#
	AscendingNode	356.413	#
	ArgOfPericenter	171.807	# J2000.0
	MeanAnomaly     29.942	#
	}

	RotationPeriod  10   # Guess

	Albedo 0.04
}

"2003J1" "Sol/Jupiter"
{
	Texture	 	"asteroid.jpg"
	Mesh		"asteroid.cms"
	Radius		2.0

	EllipticalOrbit
	{
	Epoch		2452644.5	# 2003 Jan 5
	Period		747.70		# mean
	SemiMajorAxis	23749000	# mean
	Eccentricity	0.2976		# mean
	Inclination	164.285
	AscendingNode	244.687
	ArgOfPericenter	348.766
	MeanAnomaly     15.553
	}

	RotationPeriod  10   # Guess

	Albedo 0.04
}

"2003J2" "Sol/Jupiter"
{
	Texture	 	"asteroid.jpg"
	Mesh		"asteroid.cms"
	Radius		1.0

	EllipticalOrbit
	{
	Epoch		2452644.5	# 2003 Jan 5
	Period		889.20		# mean
	SemiMajorAxis	26658000	# mean
	Eccentricity	0.3316		# mean
	Inclination	149.189
	AscendingNode	25.127
	ArgOfPericenter	168.876
	MeanAnomaly     335.552
	}

	RotationPeriod  10   # Guess

	Albedo 0.04
}

"2003J3" "Sol/Jupiter"
{
	Texture	 	"asteroid.jpg"
	Mesh		"asteroid.cms"
	Radius		1.0

	EllipticalOrbit
	{
	Epoch		2452644.5	# 2003 Jan 5
	Period		490.45		# mean
	SemiMajorAxis	17929000	# mean
	Eccentricity	0.2217		# mean
	Inclination	143.958
	AscendingNode	264.702
	ArgOfPericenter	102.944
	MeanAnomaly     234.509
	}

	RotationPeriod  10   # Guess

	Albedo 0.04
}

"2003J4" "Sol/Jupiter"
{
	Texture	 	"asteroid.jpg"
	Mesh		"asteroid.cms"
	Radius		1.0

	EllipticalOrbit
	{
	Epoch		2452644.5	# 2003 Jan 5
	Period		547.50		# mean
	SemiMajorAxis	19294000	# mean
	Eccentricity	0.3664		# mean
	Inclination	143.150
	AscendingNode	222.782
	ArgOfPericenter	170.486
	MeanAnomaly     110.583
	}

	RotationPeriod  10   # Guess

	Albedo 0.04
}

"2003J5" "Sol/Jupiter"
{
	Texture	 	"asteroid.jpg"
	Mesh		"asteroid.cms"
	Radius		2.0

	EllipticalOrbit
	{
	Epoch		2452644.5	# 2003 Jan 5
	Period		781.03		# mean
	SemiMajorAxis	24450000	# mean
	Eccentricity	0.1634		# mean
	Inclination	166.690
	AscendingNode	224.034
	ArgOfPericenter	133.254
	MeanAnomaly     139.936
	}

	RotationPeriod  10   # Guess

	Albedo 0.04
}

"2003J6" "Sol/Jupiter"
{
	Texture	 	"asteroid.jpg"
	Mesh		"asteroid.cms"
	Radius		2.0

	EllipticalOrbit
	{
	Epoch		2452644.5	# 2003 Jan 5
	Period		616.82		# mean
	SemiMajorAxis	20890000	# mean
	Eccentricity	0.1411		# mean
	Inclination	157.683
	AscendingNode	118.048
	ArgOfPericenter	292.928
	MeanAnomaly     327.379
	}

	RotationPeriod  10   # Guess

	Albedo 0.04
}

"2003J7" "Sol/Jupiter"
{
	Texture	 	"asteroid.jpg"
	Mesh		"asteroid.cms"
	Radius		2.0

	EllipticalOrbit
	{
	Epoch		2452644.5	# 2003 Jan 5
	Period		714.00		# mean
	SemiMajorAxis	23030000	# mean
	Eccentricity	0.4030		# mean
	Inclination	160.804
	AscendingNode	219.598
	ArgOfPericenter	96.171
	MeanAnomaly     343.690
	}

	RotationPeriod  10   # Guess

	Albedo 0.04
}

"2003J8" "Sol/Jupiter"
{
	Texture	 	"asteroid.jpg"
	Mesh		"asteroid.cms"
	Radius		1.5

	EllipticalOrbit
	{
	Epoch		2452644.5	# 2003 Jan 5
	Period		623.39		# mean
	SemiMajorAxis	21038000	# mean
	Eccentricity	0.2372		# mean
	Inclination	149.836
	AscendingNode	351.233
	ArgOfPericenter	202.874
	MeanAnomaly     57.833
	}

	RotationPeriod  10   # Guess

	Albedo 0.04
}

"2003J9" "Sol/Jupiter"
{
	Texture	 	"asteroid.jpg"
	Mesh		"asteroid.cms"
	Radius		0.5

	EllipticalOrbit
	{
	Epoch		2452644.5	# 2003 Jan 5
	Period		713.51		# mean
	SemiMajorAxis	23020000	# mean
	Eccentricity	0.2133		# mean
	Inclination	164.671
	AscendingNode	73.053
	ArgOfPericenter	314.155
	MeanAnomaly     148.909
	}

	RotationPeriod  10   # Guess

	Albedo 0.04
}

"2003J10" "Sol/Jupiter"
{
	Texture	 	"asteroid.jpg"
	Mesh		"asteroid.cms"
	Radius		1.0

	EllipticalOrbit
	{
	Epoch		2452644.5	# 2003 Jan 5
	Period		625.16		# mean
	SemiMajorAxis	21078000	# mean
	Eccentricity	0.3491		# mean
	Inclination	165.120
	AscendingNode	200.355
	ArgOfPericenter	171.024
	MeanAnomaly     122.432
	}

	RotationPeriod  10   # Guess

	Albedo 0.04
}

"2003J11" "Sol/Jupiter"
{
	Texture	 	"asteroid.jpg"
	Mesh		"asteroid.cms"
	Radius		1.0

	EllipticalOrbit
	{
	Epoch		2452644.5	# 2003 Jan 5
	Period		702.95		# mean
	SemiMajorAxis	22792000	# mean
	Eccentricity	0.2623		# mean
	Inclination	162.568
	AscendingNode	53.720
	ArgOfPericenter	3.514
	MeanAnomaly     246.113
	}

	RotationPeriod  10   # Guess

	Albedo 0.04
}

"2003J12" "Sol/Jupiter"
{
	Texture	 	"asteroid.jpg"
	Mesh		"asteroid.cms"
	Radius		0.5

	EllipticalOrbit
	{
	Epoch		2452644.5	# 2003 Jan 5
	Period		536.23		# mean
	SemiMajorAxis	19028000	# mean
	Eccentricity	0.3679		# mean
	Inclination	146.084
	AscendingNode	78.392
	ArgOfPericenter	26.480
	MeanAnomaly     110.686
	}

	RotationPeriod  10   # Guess

	Albedo 0.04
}

"2003J13" "Sol/Jupiter"
{
	Texture	 	"asteroid.jpg"
	Mesh		"asteroid.cms"
	Radius		1.0

	EllipticalOrbit
	{
	Epoch		2452644.5	# 2003 Jan 5
	Period		742.93		# mean
	SemiMajorAxis	23648000	# mean
	Eccentricity	0.4320		# mean
	Inclination	140.930
	AscendingNode	282.698
	ArgOfPericenter	212.248
	MeanAnomaly     277.417
	}

	RotationPeriod  10   # Guess

	Albedo 0.04
}

"2003J14" "Sol/Jupiter"
{
	Texture	 	"asteroid.jpg"
	Mesh		"asteroid.cms"
	Radius		1.0

	EllipticalOrbit
	{
	Epoch		2452644.5	# 2003 Jan 5
	Period		761.45		# mean
	SemiMajorAxis	24039000	# mean
	Eccentricity	0.3070		# mean
	Inclination	136.948
	AscendingNode	2.577
	ArgOfPericenter	126.992
	MeanAnomaly     225.672
	}

	RotationPeriod  10   # Guess

	Albedo 0.04
}

"2003J15" "Sol/Jupiter"
{
	Texture	 	"asteroid.jpg"
	Mesh		"asteroid.cms"
	Radius		1.0

	EllipticalOrbit
	{
	Epoch		2452644.5	# 2003 Jan 5
	Period		678.19		# mean
	SemiMajorAxis	22253000	# mean
	Eccentricity	0.1199		# mean
	Inclination	141.481
	AscendingNode	267.166
	ArgOfPericenter	34.821
	MeanAnomaly     263.190
	}

	RotationPeriod  10   # Guess

	Albedo 0.04
}

